[{"OBJECT_NAME":"STARLINK-2692","OBJECT_ID":"2021-040G","EPOCH":"2026-03-09T12:20:05.153856","MEAN_MOTION":15.30199162,"ECCENTRICITY":0.00014901,"INCLINATION":53.1618,"RA_OF_ASC_NODE":153.5066,"ARG_OF_PERICENTER":105.4069,"MEAN_ANOMALY":254.7097,"EPHEMERIS_TYPE":0,"CLASSIFICATION_TYPE":"U","NORAD_CAT_ID":48434,"ELEMENT_SET_NO":999,"REV_AT_EPOCH":26701,"BSTAR":3.421468e-6,"MEAN_MOTION_DOT":-2.58e-6,"MEAN_MOTION_DDOT":0},{"OBJECT_NAME":"FENGYUN 1C DEB","OBJECT_ID":"1999-025ETT","EPOCH":"2026-03-07T08:30:03.670560","MEAN_MOTION":15.28888299,"ECCENTRICITY":0.00158464,"INCLINATION":99.1103,"RA_OF_ASC_NODE":112.0072,"ARG_OF_PERICENTER":201.0032,"MEAN_ANOMALY":159.0553,"EPHEMERIS_TYPE":0,"CLASSIFICATION_TYPE":"U","NORAD_CAT_ID":38726,"ELEMENT_SET_NO":999,"REV_AT_EPOCH":71135,"BSTAR":0.013792546,"MEAN_MOTION_DOT":0.00409659,"MEAN_MOTION_DDOT":0}]
